{"type": "FeatureCollection", "features": [{"type": "Feature", "properties": {"id": 213661648, "tags": {"name": "Te Awa Kairangi / Hutt River", "name:mi": "Te Awa Kairangi", "note": "NZ Gazeteer at https://gazetteer.linz.govt.nz/place/5921 says this is a conjoint name.\nA note also says \"Hutt River is not official - Status: Replaced\"\nWith one conjoint name it is inappropriate to make entries in English and Maori.", "waterway": "river"}}, "geometry": {"type": "LineString", "coordinates": [[174.9735534, -41.163826], [174.9725834, -41.1644721], [174.9722691, -41.164672], [174.9719741, -41.1648597], [174.9716222, -41.1650212], [174.971339, -41.1651182], [174.9708068, -41.1652863], [174.969496, -41.1655649], [174.9679571, -41.1658743], [174.9667869, -41.166066], [174.9659501, -41.1661759], [174.9654424, -41.1662426], [174.9646355, -41.1663912], [174.9644296, -41.1664622], [174.9642493, -41.1665398], [174.9640262, -41.1666948], [174.963695, -41.1668131], [174.9629806, -41.1671542], [174.9621206, -41.1682068], [174.9609448, -41.1692793], [174.9600265, -41.1702096], [174.9594857, -41.1706426], [174.9588077, -41.1711788], [174.9569451, -41.1723417], [174.9550911, -41.1734529], [174.9548337, -41.1736339], [174.9545518, -41.1738927], [174.9529626, -41.1752167], [174.9505765, -41.1769158], [174.9499241, -41.1773874], [174.9486282, -41.1785115], [174.9474094, -41.1795193], [174.9467741, -41.1800554], [174.9463364, -41.1804883], [174.9459331, -41.1808952], [174.9453912, -41.1812568], [174.9447174, -41.1819096], [174.9443942, -41.1822449], [174.9440738, -41.1825811], [174.9433957, -41.1833958], [174.9431506, -41.1838148], [174.9427158, -41.1843297], [174.942346, -41.1847143], [174.9418772, -41.1851176], [174.9414765, -41.1855072], [174.9409708, -41.1859541], [174.9405253, -41.1863055], [174.9400103, -41.1866727], [174.9389964, -41.1873528], [174.9377666, -41.1881603], [174.9355696, -41.1894942], [174.9349321, -41.1899614], [174.9342576, -41.1903915], [174.9336703, -41.1907134], [174.9330954, -41.1909796], [174.9327027, -41.1912038], [174.9318914, -41.1916045], [174.9313639, -41.1919064], [174.9304944, -41.1923352], [174.9301659, -41.1924972], [174.9301403, -41.1925089], [174.9296284, -41.1927429], [174.9291699, -41.193025], [174.9291551, -41.1930341], [174.9290845, -41.1930775], [174.9274676, -41.1937298], [174.9265826, -41.1940645], [174.9259318, -41.1942785], [174.9252827, -41.1944809], [174.9239994, -41.1948051], [174.9225824, -41.1953594], [174.922092, -41.1955856], [174.9216664, -41.1958459], [174.9214097, -41.1960305], [174.9211772, -41.196195], [174.9203384, -41.1967007], [174.91942, -41.1972368], [174.918759, -41.1976437], [174.9181735, -41.198031], [174.9172443, -41.1985786], [174.9169177, -41.1987711], [174.9163987, -41.1990902], [174.9160125, -41.1992776], [174.9155239, -41.1995035], [174.9146905, -41.1998444], [174.9137121, -41.2001687], [174.9131629, -41.2003625], [174.9126651, -41.2005757], [174.9123561, -41.2007113], [174.911884, -41.2008792], [174.9115579, -41.2010019], [174.9112251, -41.2010895], [174.9109704, -41.2012405], [174.910714, -41.201393], [174.9102559, -41.2016436], [174.9099965, -41.2018156], [174.9096217, -41.2021248], [174.9091338, -41.2028655], [174.9085366, -41.2033654], [174.9082791, -41.2035462], [174.9079702, -41.2037077], [174.907644, -41.2039078], [174.9072149, -41.2041403], [174.9067427, -41.2044309], [174.9058931, -41.2049088], [174.9057041, -41.2050509], [174.9054466, -41.2052639], [174.9044254, -41.2061679], [174.9040992, -41.2063875], [174.9038419, -41.2065325], [174.9032237, -41.2068396], [174.9014212, -41.2076855], [174.9010006, -41.2079051], [174.9005458, -41.2081762], [174.9002625, -41.2083828], [174.8999965, -41.2086154], [174.8997937, -41.2088573], [174.8996273, -41.2091318], [174.8991037, -41.2101973], [174.8989664, -41.2105654], [174.8987922, -41.2110211], [174.8983743, -41.2119406], [174.8982026, -41.2124702], [174.8977477, -41.2136194], [174.8975675, -41.2140392], [174.8974645, -41.2144975], [174.8972326, -41.2151496], [174.8971726, -41.2154338], [174.8971383, -41.21575], [174.8971383, -41.2160471], [174.8971599, -41.2162801], [174.8972093, -41.2165181], [174.897354, -41.2169867], [174.8975191, -41.2174749], [174.8977955, -41.2181901], [174.8980921, -41.2188624], [174.89832, -41.2193696], [174.8986575, -41.2201209], [174.8991755, -41.2209101], [174.8999364, -41.2219287], [174.8999879, -41.2220577], [174.9000117, -41.2221907], [174.9000504, -41.222339], [174.8999192, -41.2230133], [174.8998402, -41.2237593], [174.8999395, -41.225096], [174.9004373, -41.2267336], [174.9006898, -41.2277607], [174.9008425, -41.2286196], [174.9006648, -41.2289344], [174.9004027, -41.2297036], [174.9002926, -41.2306409], [174.9000964, -41.2318432], [174.8998307, -41.2340138], [174.900181, -41.2362851], [174.9001185, -41.2377037], [174.9000354, -41.2384666], [174.8997299, -41.2396485], [174.8996271, -41.2399144]]}}, {"type": "Feature", "properties": {"id": 213661652, "tags": {"name": "Te Awa Kairangi / Hutt River", "name:mi": "Te Awa Kairangi", "note": "NZ Gazeteer at https://gazetteer.linz.govt.nz/place/5921 says this is a conjoint name. \nA note also says \"Hutt River - This name is not official - Status: Replaced\" \nWith one conjoint name it is inappropriate to make entries in English and Maori.", "waterway": "river"}}, "geometry": {"type": "LineString", "coordinates": [[174.9868404, -41.1537791], [174.9866339, -41.1541586], [174.9863304, -41.154609], [174.9853979, -41.1556644], [174.9848144, -41.1563236], [174.9842479, -41.1569375], [174.9836385, -41.1576031], [174.983381, -41.1578421], [174.9829948, -41.1581846], [174.9826171, -41.1585078], [174.982188, -41.1589214], [174.9819219, -41.1591153], [174.9816215, -41.1593284], [174.9809931, -41.1597329], [174.9795863, -41.1604358], [174.9782334, -41.1611005], [174.9780468, -41.16118], [174.9768407, -41.1616935], [174.9760253, -41.1621395], [174.9754588, -41.1625336], [174.9748751, -41.1629083], [174.9735534, -41.163826]]}}]}